CCSDS_OMM_VERS,COMMENT,CREATION_DATE,ORIGINATOR,OBJECT_NAME,OBJECT_ID,CENTER_NAME,REF_FRAME,TIME_SYSTEM,MEAN_ELEMENT_THEORY,EPOCH,MEAN_MOTION,ECCENTRICITY,INCLINATION,RA_OF_ASC_NODE,ARG_OF_PERICENTER,MEAN_ANOMALY,EPHEMERIS_TYPE,CLASSIFICATION_TYPE,NORAD_CAT_ID,ELEMENT_SET_NO,REV_AT_EPOCH,BSTAR,MEAN_MOTION_DOT,MEAN_MOTION_DDOT,SEMIMAJOR_AXIS,PERIOD,APOAPSIS,PERIAPSIS,OBJECT_TYPE,RCS_SIZE,COUNTRY_CODE,LAUNCH_DATE,SITE,DECAY_DATE,FILE,GP_ID,TLE_LINE0,TLE_LINE1,TLE_LINE2
"3.0","GENERATED VIA SPACE-TRACK.ORG API","2025-03-29T17:28:10","18 SPCS","CZ-6A DEB","2024-140WQ","EARTH","TEME","UTC","SGP4","2025-03-28T22:01:52.902624","16.00992543","0.00178930","89.1667","327.2873","226.7580","133.2217","0","U","61375","999","3076","0.02589900000000","0.08135152","0.2592500000000","6649.806","89.944","283.569","259.772","DEBRIS","SMALL","PRC","2024-08-06","TSC","2025-04-01","4684192","284346737","0 CZ-6A DEB","1 61375U 24140WQ  25087.91797341  .08135152  25925+0  25899-1 0  9997","2 61375  89.1667 327.2873 0017893 226.7580 133.2217 16.00992543 30765"
"3.0","GENERATED VIA SPACE-TRACK.ORG API","2025-03-29T04:16:16","18 SPCS","STARLINK-31901","2024-093M","EARTH","TEME","UTC","SGP4","2025-03-29T01:21:01.096416","16.18485959","0.00058910","42.9821","314.7501","262.8841","242.5882","0","U","59793","999","5035","0.00146210000000","0.02292420","0.0076249000000","6601.803","88.972","227.557","219.779","PAYLOAD","LARGE","US","2024-05-18","AFETR","2025-03-29","4683635","284304707","0 STARLINK-31901","1 59793U 24093M   25088.05626269  .02292420  76249-2  14621-2 0  9997","2 59793  42.9821 314.7501 0005891 262.8841 242.5882 16.18485959 50356"
"3.0","GENERATED VIA SPACE-TRACK.ORG API","2025-03-29T05:56:16","18 SPCS","STARLINK-2733","2021-044H","EARTH","TEME","UTC","SGP4","2025-03-29T04:03:37.767168","16.45010751","0.00075050","53.0188","193.9894","17.3246","52.4519","0","U","48645","999","21307","0.00033637000000","0.12146643","0.0000126220000","6530.644","87.537","157.410","147.608","PAYLOAD","LARGE","US","2021-05-26","AFETR","2025-03-29","4683641","284304713","0 STARLINK-2733","1 48645U 21044H   25088.16918712  .12146643  12622-4  33637-3 0  9995","2 48645  53.0188 193.9894 0007505  17.3246  52.4519 16.45010751213076"
"3.0","GENERATED VIA SPACE-TRACK.ORG API","2025-03-30T17:21:43","18 SPCS","OBJECT AX","2024-043AX","EARTH","TEME","UTC","SGP4","2025-03-29T05:45:57.919680","16.37906214","0.00128790","97.4615","227.3877","282.7661","77.2198","0","U","59143","999","5983","0.00114350000000","0.11441880","0.0000025659000","6549.515","87.917","179.815","162.945","UNKNOWN","SMALL","TBD","2024-03-04","AFWTR","2025-04-02","4685273","284430758","0 OBJECT AX","1 59143U 24043AX  25088.24025370  .11441880  25659-5  11435-2 0  9996","2 59143  97.4615 227.3877 0012879 282.7661  77.2198 16.37906214 59839"
"3.0","GENERATED VIA SPACE-TRACK.ORG API","2025-03-30T04:28:37","18 SPCS","OBJECT BJ","2025-052BJ","EARTH","TEME","UTC","SGP4","2025-03-29T06:17:32.310528","14.93086536","0.00042470","97.7387","343.1835","78.4226","281.7470","0","U","63396","999","222","0.00037899000000","0.00003893","0.0000000000000","6966.455","96.445","591.279","585.362","UNKNOWN","","TBD","2025-03-15","AFWTR","2025-04-24","4684622","284388236","0 OBJECT BJ","1 63396U 25052BJ  25088.26217952  .00003893  00000-0  37899-3 0  9990","2 63396  97.7387 343.1835 0004247  78.4226 281.7470 14.93086536  2223"
"3.0","GENERATED VIA SPACE-TRACK.ORG API","2025-03-29T11:56:17","18 SPCS","STARLINK-1062","2019-074BG","EARTH","TEME","UTC","SGP4","2025-03-29T11:29:48.127200","16.47040245","0.00075950","53.0164","273.9060","264.4530","184.5478","0","U","44767","999","29720","0.00034241000000","0.18638896","0.0000125460000","6525.278","87.430","152.099","142.187","PAYLOAD","LARGE","US","2019-11-11","AFETR","2025-03-29","4684013","284313869","0 STARLINK-1062","1 44767U 19074BG  25088.47902925  .18638896  12546-4  34241-3 0  9998","2 44767  53.0164 273.9060 0007595 264.4530 184.5478 16.47040245297206"
"3.0","GENERATED VIA SPACE-TRACK.ORG API","2025-03-29T13:46:16","18 SPCS","STARLINK-2002","2021-009BB","EARTH","TEME","UTC","SGP4","2025-03-29T12:30:47.474784","16.44596640","0.00038220","53.0307","102.6232","291.6522","207.8823","0","U","47597","999","22976","0.00070351000000","0.21124012","0.0000125130000","6531.740","87.559","156.102","151.109","PAYLOAD","LARGE","US","2021-02-04","AFETR","2025-03-29","4684016","284313872","0 STARLINK-2002","1 47597U 21009BB  25088.52138281  .21124012  12513-4  70351-3 0  9995","2 47597  53.0307 102.6232 0003822 291.6522 207.8823 16.44596640229761"
"3.0","GENERATED VIA SPACE-TRACK.ORG API","2025-04-01T05:06:31","18 SPCS","ELECTRON R/B","2025-056F","EARTH","TEME","UTC","SGP4","2025-03-29T13:27:59.838336","16.41391216","0.00521970","97.9261","217.6347","204.2349","163.1487","0","U","63305","999","180","0.00046598000000","0.28064676","0.0000021675000","6540.241","87.730","196.244","127.968","ROCKET BODY","LARGE","US","2025-03-18","RLLC","2025-04-01","4686616","284555229","0 ELECTRON R/B","1 63305U 25056F   25088.56110924  .28064676  21675-5  46598-3 0  9996","2 63305  97.9261 217.6347 0052197 204.2349 163.1487 16.41391216  1804"
"3.0","GENERATED VIA SPACE-TRACK.ORG API","2025-03-29T18:16:16","18 SPCS","CYGNUS NG-21","2024-139A","EARTH","TEME","UTC","SGP4","2025-03-29T16:51:16.922880","15.52265117","0.00033400","51.6312","340.7025","22.2587","73.6560","0","U","60378","999","3685","-0.00235200000000","-0.00143412","0.0000000000000","6788.251","92.768","412.384","407.849","PAYLOAD","LARGE","US","2024-08-04","AFETR","2025-03-30","4684195","284348321","0 CYGNUS NG-21","1 60378U 24139A   25088.70227920 -.00143412  00000-0 -23520-2 0  9996","2 60378  51.6312 340.7025 0003340  22.2587  73.6560 15.52265117 36855"
"3.0","GENERATED VIA SPACE-TRACK.ORG API","2025-03-30T03:16:16","18 SPCS","STARLINK-2447","2021-027U","EARTH","TEME","UTC","SGP4","2025-03-29T21:16:06.978432","16.30706766","0.00097940","53.0356","234.1239","301.7628","187.4462","0","U","48110","999","22068","0.00453090000000","0.23037357","0.0000121940000","6568.778","88.305","197.077","184.210","PAYLOAD","LARGE","US","2021-04-07","AFETR","2025-03-30","4684621","284358584","0 STARLINK-2447","1 48110U 21027U   25088.88619188  .23037357  12194-4  45309-2 0  9992","2 48110  53.0356 234.1239 0009794 301.7628 187.4462 16.30706766220680"
"3.0","GENERATED VIA SPACE-TRACK.ORG API","2025-03-30T17:21:43","18 SPCS","CZ-6A DEB","2022-151FK","EARTH","TEME","UTC","SGP4","2025-03-30T02:27:37.151712","16.23235751","0.00132410","98.9766","208.2315","302.6110","57.3896","0","U","54435","999","5423","0.00715730000000","0.17696313","0.0000034279000","6588.918","88.712","219.507","202.059","DEBRIS","SMALL","PRC","2022-11-11","TSC","2025-04-02","4685273","284426810","0 CZ-6A DEB","1 54435U 22151FK  25089.10251333  .17696313  34279-5  71573-2 0  9995","2 54435  98.9766 208.2315 0013241 302.6110  57.3896 16.23235751 54230"
"3.0","GENERATED VIA SPACE-TRACK.ORG API","2025-04-11T02:29:26","18 SPCS","OBJECT A","2015-049A","EARTH","TEME","UTC","SGP4","2025-03-30T05:18:39.337632","16.50187745","0.00098880","97.3955","125.4220","247.1923","112.8338","0","U","40899","999","52913","0.00017247000000","0.15801369","0.0000026525000","6516.978","87.263","145.287","132.399","UNKNOWN","MEDIUM","PRC","2015-09-19","TSC","2025-04-12","4698154","285345508","0 OBJECT A","1 40899U 15049A   25089.22128863  .15801369  26525-5  17247-3 0  9997","2 40899  97.3955 125.4220 0009888 247.1923 112.8338 16.50187745529137"
"3.0","GENERATED VIA SPACE-TRACK.ORG API","2025-03-30T06:16:29","18 SPCS","STARLINK-2035","2021-012AH","EARTH","TEME","UTC","SGP4","2025-03-30T05:47:36.187584","16.45714879","0.00025370","53.0275","151.8283","285.9305","186.0895","0","U","47651","999","22791","0.00060862000000","0.22732242","0.0000125320000","6528.781","87.500","152.303","148.990","PAYLOAD","LARGE","US","2021-02-16","AFETR","2025-03-30","4684638","284388486","0 STARLINK-2035","1 47651U 21012AH  25089.24139106  .22732242  12532-4  60862-3 0  9995","2 47651  53.0275 151.8283 0002537 285.9305 186.0895 16.45714879227914"
"3.0","GENERATED VIA SPACE-TRACK.ORG API","2025-03-30T17:21:43","18 SPCS","DMSP 5D-2 F11 DEB","1991-082CK","EARTH","TEME","UTC","SGP4","2025-03-30T06:25:30.877536","15.43171458","0.00244180","98.6156","202.1481","282.0926","77.7582","0","U","29090","999","8719","0.01910500000000","0.00929769","0.0000000000000","6814.893","93.314","453.399","420.118","DEBRIS","SMALL","US","1991-11-28","AFWTR","2025-04-15","4685273","284412590","0 DMSP 5D-2 F11 DEB","1 29090U 91082CK  25089.26771849  .00929769  00000-0  19105-1 0  9997","2 29090  98.6156 202.1481 0024418 282.0926  77.7582 15.43171458 87193"
"3.0","GENERATED VIA SPACE-TRACK.ORG API","2025-03-30T17:21:43","18 SPCS","IRIDIUM 33 DEB","1997-051GU","EARTH","TEME","UTC","SGP4","2025-03-30T07:04:15.034080","16.03179537","0.00181370","86.2693","28.8465","176.2823","183.8603","0","U","34503","999","85638","0.01792200000000","0.06940213","0.1577800000000","6643.757","89.822","277.672","253.572","DEBRIS","SMALL","US","1997-09-14","TTMTR","2025-04-02","4685273","284415432","0 IRIDIUM 33 DEB","1 34503U 97051GU  25089.29461845  .06940213  15778+0  17922-1 0  9994","2 34503  86.2693  28.8465 0018137 176.2823 183.8603 16.03179537856384"
"3.0","GENERATED VIA SPACE-TRACK.ORG API","2025-03-30T17:21:43","18 SPCS","OBJECT XE","1998-067XE","EARTH","TEME","UTC","SGP4","2025-03-30T13:12:14.116032","16.31399071","0.00086750","51.6023","320.8807","257.8161","102.1891","0","U","62298","999","1745","0.00126980000000","0.06907718","0.0000121360000","6566.920","88.268","194.481","183.088","UNKNOWN","SMALL","JPN","1998-11-20","TTMTR","2025-04-04","4685273","284433675","0 OBJECT XE","1 62298U 98067XE  25089.55016338  .06907718  12136-4  12698-2 0  9995","2 62298  51.6023 320.8807 0008675 257.8161 102.1891 16.31399071 17459"
